<?xml version="1.0" encoding="UTF-8"?>
<kml xmlns="http://www.opengis.net/kml/2.2"><Document><name>明代浙江海防历史设施点位</name><Placemark><name>松门卫</name><description>卫 · 台州府 · confirmed · 《浙江通志》卷九十八〈海防四·台州府〉；《明史》卷九十〈浙江都司〉 · 本行巡司/烽堠仅为文献列于该防区，非正式隶属或实证传警线</description><ExtendedData><Data name="id"><value>ZJ-MAP-0002</value></Data><Data name="name"><value>松门卫</value></Data><Data name="type"><value>卫</value></Data><Data name="pref"><value>台州府</value></Data><Data name="guard"><value>松门卫</value></Data><Data name="subguard"><value></value></Data><Data name="status"><value>confirmed</value></Data><Data name="source"><value>《浙江通志》卷九十八〈海防四·台州府〉；《明史》卷九十〈浙江都司〉</value></Data></ExtendedData><Point><coordinates>121.525676,28.387747,0</coordinates></Point></Placemark><Placemark><name>海门卫</name><description>卫 · 台州府 · confirmed · 《浙江通志》卷九十八〈海防四·台州府〉；《明史》卷九十〈浙江都司〉 · 本行巡司/烽堠仅为文献列于该防区，非正式隶属或实证传警线</description><ExtendedData><Data name="id"><value>ZJ-MAP-0003</value></Data><Data name="name"><value>海门卫</value></Data><Data name="type"><value>卫</value></Data><Data name="pref"><value>台州府</value></Data><Data name="guard"><value>海门卫</value></Data><Data name="subguard"><value></value></Data><Data name="status"><value>confirmed</value></Data><Data name="source"><value>《浙江通志》卷九十八〈海防四·台州府〉；《明史》卷九十〈浙江都司〉</value></Data></ExtendedData><Point><coordinates>121.446504,28.679834,0</coordinates></Point></Placemark><Placemark><name>观海卫</name><description>卫 · 宁波府 · confirmed · 《浙江通志》卷九十八〈海防四·绍兴府临观段〉；《明史》卷九十〈浙江都司〉 · 本行巡司/烽堠仅为文献列于该防区，非正式隶属或实证传警线；民政属宁波慈溪县，临观防区见绍兴篇</description><ExtendedData><Data name="id"><value>ZJ-MAP-0009</value></Data><Data name="name"><value>观海卫</value></Data><Data name="type"><value>卫</value></Data><Data name="pref"><value>宁波府</value></Data><Data name="guard"><value>观海卫</value></Data><Data name="subguard"><value></value></Data><Data name="status"><value>confirmed</value></Data><Data name="source"><value>《浙江通志》卷九十八〈海防四·绍兴府临观段〉；《明史》卷九十〈浙江都司〉</value></Data></ExtendedData><Point><coordinates>121.410715,30.172797,0</coordinates></Point></Placemark><Placemark><name>磐石卫</name><description>卫 · 温州府 · confirmed · 《浙江通志》卷九十八〈海防四·温州府〉；《明史》卷九十〈浙江都司〉 · 本行巡司/烽堠仅为文献列于该防区，非正式隶属或实证传警线</description><ExtendedData><Data name="id"><value>ZJ-MAP-0013</value></Data><Data name="name"><value>磐石卫</value></Data><Data name="type"><value>卫</value></Data><Data name="pref"><value>温州府</value></Data><Data name="guard"><value>磐石卫</value></Data><Data name="subguard"><value></value></Data><Data name="status"><value>confirmed</value></Data><Data name="source"><value>《浙江通志》卷九十八〈海防四·温州府〉；《明史》卷九十〈浙江都司〉</value></Data></ExtendedData><Point><coordinates>120.823121,27.9903,0</coordinates></Point></Placemark><Placemark><name>金乡卫</name><description>卫 · 温州府 · confirmed · 《浙江通志》卷九十八〈海防四·温州府〉；《明史》卷九十〈浙江都司〉 · 本行巡司/烽堠仅为文献列于该防区，非正式隶属或实证传警线</description><ExtendedData><Data name="id"><value>ZJ-MAP-0014</value></Data><Data name="name"><value>金乡卫</value></Data><Data name="type"><value>卫</value></Data><Data name="pref"><value>温州府</value></Data><Data name="guard"><value>金乡卫</value></Data><Data name="subguard"><value></value></Data><Data name="status"><value>confirmed</value></Data><Data name="source"><value>《浙江通志》卷九十八〈海防四·温州府〉；《明史》卷九十〈浙江都司〉</value></Data></ExtendedData><Point><coordinates>120.610684,27.431615,0</coordinates></Point></Placemark><Placemark><name>临山卫</name><description>卫 · 绍兴府 · confirmed · 《浙江通志》卷九十八〈海防四·绍兴府〉；《明史》卷九十〈浙江都司〉 · 本行巡司/烽堠仅为文献列于该防区，非正式隶属或实证传警线</description><ExtendedData><Data name="id"><value>ZJ-MAP-0015</value></Data><Data name="name"><value>临山卫</value></Data><Data name="type"><value>卫</value></Data><Data name="pref"><value>绍兴府</value></Data><Data name="guard"><value>临山卫</value></Data><Data name="subguard"><value></value></Data><Data name="status"><value>confirmed</value></Data><Data name="source"><value>《浙江通志》卷九十八〈海防四·绍兴府〉；《明史》卷九十〈浙江都司〉</value></Data></ExtendedData><Point><coordinates>120.997461,30.154063,0</coordinates></Point></Placemark><Placemark><name>小鹿</name><description>巡检司 · 台州府 · confirmed · 《浙江通志》卷九十八〈海防四·台州府〉 · 本行巡司/烽堠仅为文献列于该防区，非正式隶属或实证传警线</description><ExtendedData><Data name="id"><value>ZJ-MAP-0018</value></Data><Data name="name"><value>小鹿</value></Data><Data name="type"><value>巡检司</value></Data><Data name="pref"><value>台州府</value></Data><Data name="guard"><value>松门卫</value></Data><Data name="subguard"><value>隘顽所</value></Data><Data name="status"><value>confirmed</value></Data><Data name="source"><value>《浙江通志》卷九十八〈海防四·台州府〉</value></Data></ExtendedData><Point><coordinates>121.388064,28.232225,0</coordinates></Point></Placemark><Placemark><name>盘马</name><description>巡检司 · 台州府 · candidate · 《浙江通志》卷九十八〈海防四·台州府〉；《明史》卷九十〈浙江都司〉 · 本行巡司/烽堠仅为文献列于该防区，非正式隶属或实证传警线</description><ExtendedData><Data name="id"><value>ZJ-MAP-0020</value></Data><Data name="name"><value>盘马</value></Data><Data name="type"><value>巡检司</value></Data><Data name="pref"><value>台州府</value></Data><Data name="guard"><value>松门卫</value></Data><Data name="subguard"><value></value></Data><Data name="status"><value>candidate</value></Data><Data name="source"><value>《浙江通志》卷九十八〈海防四·台州府〉；《明史》卷九十〈浙江都司〉</value></Data></ExtendedData><Point><coordinates>121.550366,28.415716,0</coordinates></Point></Placemark><Placemark><name>曼岙</name><description>巡检司 · 台州府 · confirmed · 《浙江通志》卷九十八〈海防四·台州府〉 · 本行巡司/烽堠仅为文献列于该防区，非正式隶属或实证传警线</description><ExtendedData><Data name="id"><value>ZJ-MAP-0021</value></Data><Data name="name"><value>曼岙</value></Data><Data name="type"><value>巡检司</value></Data><Data name="pref"><value>台州府</value></Data><Data name="guard"><value>海门卫</value></Data><Data name="subguard"><value>健跳所</value></Data><Data name="status"><value>confirmed</value></Data><Data name="source"><value>《浙江通志》卷九十八〈海防四·台州府〉</value></Data></ExtendedData><Point><coordinates>121.435185,29.137384,0</coordinates></Point></Placemark><Placemark><name>长浦</name><description>巡检司 · 台州府 · confirmed · 《浙江通志》卷九十八〈海防四·台州府〉；《明史》卷九十〈浙江都司〉 · 本行巡司/烽堠仅为文献列于该防区，非正式隶属或实证传警线</description><ExtendedData><Data name="id"><value>ZJ-MAP-0027</value></Data><Data name="name"><value>长浦</value></Data><Data name="type"><value>巡检司</value></Data><Data name="pref"><value>台州府</value></Data><Data name="guard"><value>海门卫</value></Data><Data name="subguard"><value></value></Data><Data name="status"><value>confirmed</value></Data><Data name="source"><value>《浙江通志》卷九十八〈海防四·台州府〉；《明史》卷九十〈浙江都司〉</value></Data></ExtendedData><Point><coordinates>121.429797,28.572373,0</coordinates></Point></Placemark><Placemark><name>乍浦</name><description>巡检司 · 嘉兴府 · candidate · 《浙江通志》卷九十七〈海防三·嘉兴府〉 · 本行巡司/烽堠仅为文献列于该防区，非正式隶属或实证传警线</description><ExtendedData><Data name="id"><value>ZJ-MAP-0028</value></Data><Data name="name"><value>乍浦</value></Data><Data name="type"><value>巡检司</value></Data><Data name="pref"><value>嘉兴府</value></Data><Data name="guard"><value>海宁卫</value></Data><Data name="subguard"><value>乍浦所</value></Data><Data name="status"><value>candidate</value></Data><Data name="source"><value>《浙江通志》卷九十七〈海防三·嘉兴府〉</value></Data></ExtendedData><Point><coordinates>121.087009,30.60042,0</coordinates></Point></Placemark><Placemark><name>澉浦</name><description>巡检司 · 嘉兴府 · candidate · 《浙江通志》卷九十七〈海防三·嘉兴府〉 · 本行巡司/烽堠仅为文献列于该防区，非正式隶属或实证传警线</description><ExtendedData><Data name="id"><value>ZJ-MAP-0030</value></Data><Data name="name"><value>澉浦</value></Data><Data name="type"><value>巡检司</value></Data><Data name="pref"><value>嘉兴府</value></Data><Data name="guard"><value>海宁卫</value></Data><Data name="subguard"><value>澉浦所</value></Data><Data name="status"><value>candidate</value></Data><Data name="source"><value>《浙江通志》卷九十七〈海防三·嘉兴府〉</value></Data></ExtendedData><Point><coordinates>120.889958,30.388643,0</coordinates></Point></Placemark><Placemark><name>塔山</name><description>巡检司 · 宁波府 · confirmed · 《浙江通志》卷九十七〈海防三·宁波府〉 · 本行巡司/烽堠仅为文献列于该防区，非正式隶属或实证传警线</description><ExtendedData><Data name="id"><value>ZJ-MAP-0032</value></Data><Data name="name"><value>塔山</value></Data><Data name="type"><value>巡检司</value></Data><Data name="pref"><value>宁波府</value></Data><Data name="guard"><value>定海卫</value></Data><Data name="subguard"><value>大嵩所</value></Data><Data name="status"><value>confirmed</value></Data><Data name="source"><value>《浙江通志》卷九十七〈海防三·宁波府〉</value></Data></ExtendedData><Point><coordinates>121.742631,29.608877,0</coordinates></Point></Placemark><Placemark><name>太平</name><description>巡检司 · 宁波府 · confirmed · 《浙江通志》卷九十七〈海防三·宁波府〉 · 本行巡司/烽堠仅为文献列于该防区，非正式隶属或实证传警线</description><ExtendedData><Data name="id"><value>ZJ-MAP-0033</value></Data><Data name="name"><value>太平</value></Data><Data name="type"><value>巡检司</value></Data><Data name="pref"><value>宁波府</value></Data><Data name="guard"><value>定海卫</value></Data><Data name="subguard"><value>霩衢所</value></Data><Data name="status"><value>confirmed</value></Data><Data name="source"><value>《浙江通志》卷九十七〈海防三·宁波府〉</value></Data></ExtendedData><Point><coordinates>121.953484,29.824709,0</coordinates></Point></Placemark><Placemark><name>穿山</name><description>巡检司 · 宁波府 · candidate · 《浙江通志》卷九十七〈海防三·宁波府〉 · 本行巡司/烽堠仅为文献列于该防区，非正式隶属或实证传警线</description><ExtendedData><Data name="id"><value>ZJ-MAP-0038</value></Data><Data name="name"><value>穿山</value></Data><Data name="type"><value>巡检司</value></Data><Data name="pref"><value>宁波府</value></Data><Data name="guard"><value>定海卫</value></Data><Data name="subguard"><value>穿山后所</value></Data><Data name="status"><value>candidate</value></Data><Data name="source"><value>《浙江通志》卷九十七〈海防三·宁波府〉</value></Data></ExtendedData><Point><coordinates>121.933981,29.887879,0</coordinates></Point></Placemark><Placemark><name>爵溪</name><description>巡检司 · 宁波府 · candidate · 《浙江通志》卷九十七〈海防三·宁波府〉 · 本行巡司/烽堠仅为文献列于该防区，非正式隶属或实证传警线</description><ExtendedData><Data name="id"><value>ZJ-MAP-0043</value></Data><Data name="name"><value>爵溪</value></Data><Data name="type"><value>巡检司</value></Data><Data name="pref"><value>宁波府</value></Data><Data name="guard"><value>昌国卫</value></Data><Data name="subguard"><value>爵溪所</value></Data><Data name="status"><value>candidate</value></Data><Data name="source"><value>《浙江通志》卷九十七〈海防三·宁波府〉</value></Data></ExtendedData><Point><coordinates>121.951114,29.473015,0</coordinates></Point></Placemark><Placemark><name>石浦</name><description>巡检司 · 宁波府 · confirmed · 《浙江通志》卷九十七〈海防三·宁波府〉 · 合列仅为名录索引，并非新的卫所机构；所辖各基层设施未能拆分到单个所</description><ExtendedData><Data name="id"><value>ZJ-MAP-0044</value></Data><Data name="name"><value>石浦</value></Data><Data name="type"><value>巡检司</value></Data><Data name="pref"><value>宁波府</value></Data><Data name="guard"><value>昌国卫</value></Data><Data name="subguard"><value>石浦前所／石浦后所（合列）</value></Data><Data name="status"><value>confirmed</value></Data><Data name="source"><value>《浙江通志》卷九十七〈海防三·宁波府〉</value></Data></ExtendedData><Point><coordinates>121.94573,29.20869,0</coordinates></Point></Placemark><Placemark><name>赭山</name><description>巡检司 · 杭州府 · confirmed · 《浙江通志》卷九十七〈海防三·杭州府〉；《明史》卷九十〈海宁千户所〉 · 直属都司守御千户所；原志分入杭州海防篇；本行巡司/烽堠仅为文献列于该防区，非正式隶属或实证传警线；此处杭州海宁所非嘉兴海盐县海宁卫</description><ExtendedData><Data name="id"><value>ZJ-MAP-0050</value></Data><Data name="name"><value>赭山</value></Data><Data name="type"><value>巡检司</value></Data><Data name="pref"><value>杭州府</value></Data><Data name="guard"><value>浙江都司</value></Data><Data name="subguard"><value>海宁所</value></Data><Data name="status"><value>confirmed</value></Data><Data name="source"><value>《浙江通志》卷九十七〈海防三·杭州府〉；《明史》卷九十〈海宁千户所〉</value></Data></ExtendedData><Point><coordinates>120.417455,30.279989,0</coordinates></Point></Placemark><Placemark><name>蒲岐</name><description>巡检司 · 温州府 · candidate · 《浙江通志》卷九十八〈海防四·温州府〉 · 本行巡司/烽堠仅为文献列于该防区，非正式隶属或实证传警线</description><ExtendedData><Data name="id"><value>ZJ-MAP-0055</value></Data><Data name="name"><value>蒲岐</value></Data><Data name="type"><value>巡检司</value></Data><Data name="pref"><value>温州府</value></Data><Data name="guard"><value>磐石卫</value></Data><Data name="subguard"><value>蒲岐所</value></Data><Data name="status"><value>candidate</value></Data><Data name="source"><value>《浙江通志》卷九十八〈海防四·温州府〉</value></Data></ExtendedData><Point><coordinates>121.052028,28.169386,0</coordinates></Point></Placemark><Placemark><name>龟峰</name><description>巡检司 · 温州府 · candidate · 《浙江通志》卷九十八〈海防四·温州府〉；《明史》卷九十〈浙江都司〉 · 本行巡司/烽堠仅为文献列于该防区，非正式隶属或实证传警线</description><ExtendedData><Data name="id"><value>ZJ-MAP-0058</value></Data><Data name="name"><value>龟峰</value></Data><Data name="type"><value>巡检司</value></Data><Data name="pref"><value>温州府</value></Data><Data name="guard"><value>金乡卫</value></Data><Data name="subguard"><value></value></Data><Data name="status"><value>candidate</value></Data><Data name="source"><value>《浙江通志》卷九十八〈海防四·温州府〉；《明史》卷九十〈浙江都司〉</value></Data></ExtendedData><Point><coordinates>120.565007,27.401401,0</coordinates></Point></Placemark><Placemark><name>三山</name><description>巡检司 · 绍兴府 · candidate · 《浙江通志》卷九十八〈海防四·绍兴府〉 · 本行巡司/烽堠仅为文献列于该防区，非正式隶属或实证传警线</description><ExtendedData><Data name="id"><value>ZJ-MAP-0059</value></Data><Data name="name"><value>三山</value></Data><Data name="type"><value>巡检司</value></Data><Data name="pref"><value>绍兴府</value></Data><Data name="guard"><value>临山卫</value></Data><Data name="subguard"><value>三山所</value></Data><Data name="status"><value>candidate</value></Data><Data name="source"><value>《浙江通志》卷九十八〈海防四·绍兴府〉</value></Data></ExtendedData><Point><coordinates>121.24313,30.173642,0</coordinates></Point></Placemark><Placemark><name>三江</name><description>巡检司 · 绍兴府 · candidate · 《浙江通志》卷九十八〈海防四·绍兴府〉 · 本行巡司/烽堠仅为文献列于该防区，非正式隶属或实证传警线</description><ExtendedData><Data name="id"><value>ZJ-MAP-0063</value></Data><Data name="name"><value>三江</value></Data><Data name="type"><value>巡检司</value></Data><Data name="pref"><value>绍兴府</value></Data><Data name="guard"><value>绍兴卫</value></Data><Data name="subguard"><value>三江所</value></Data><Data name="status"><value>candidate</value></Data><Data name="source"><value>《浙江通志》卷九十八〈海防四·绍兴府〉</value></Data></ExtendedData><Point><coordinates>120.616296,30.113341,0</coordinates></Point></Placemark><Placemark><name>楚门所</name><description>所 · 台州府 · confirmed · 《浙江通志》卷九十八〈海防四·台州府〉 · 本行巡司/烽堠仅为文献列于该防区，非正式隶属或实证传警线</description><ExtendedData><Data name="id"><value>ZJ-MAP-0065</value></Data><Data name="name"><value>楚门所</value></Data><Data name="type"><value>所</value></Data><Data name="pref"><value>台州府</value></Data><Data name="guard"><value>松门卫</value></Data><Data name="subguard"><value>楚门所</value></Data><Data name="status"><value>confirmed</value></Data><Data name="source"><value>《浙江通志》卷九十八〈海防四·台州府〉</value></Data></ExtendedData><Point><coordinates>121.28896,28.228632,0</coordinates></Point></Placemark><Placemark><name>健跳所</name><description>所 · 台州府 · confirmed · 《浙江通志》卷九十八〈海防四·台州府〉 · 本行巡司/烽堠仅为文献列于该防区，非正式隶属或实证传警线</description><ExtendedData><Data name="id"><value>ZJ-MAP-0067</value></Data><Data name="name"><value>健跳所</value></Data><Data name="type"><value>所</value></Data><Data name="pref"><value>台州府</value></Data><Data name="guard"><value>海门卫</value></Data><Data name="subguard"><value>健跳所</value></Data><Data name="status"><value>confirmed</value></Data><Data name="source"><value>《浙江通志》卷九十八〈海防四·台州府〉</value></Data></ExtendedData><Point><coordinates>121.631275,29.041485,0</coordinates></Point></Placemark><Placemark><name>新河所</name><description>所 · 台州府 · confirmed · 《浙江通志》卷九十八〈海防四·台州府〉 · 本行巡司/烽堠仅为文献列于该防区，非正式隶属或实证传警线</description><ExtendedData><Data name="id"><value>ZJ-MAP-0068</value></Data><Data name="name"><value>新河所</value></Data><Data name="type"><value>所</value></Data><Data name="pref"><value>台州府</value></Data><Data name="guard"><value>海门卫</value></Data><Data name="subguard"><value>新河所</value></Data><Data name="status"><value>confirmed</value></Data><Data name="source"><value>《浙江通志》卷九十八〈海防四·台州府〉</value></Data></ExtendedData><Point><coordinates>121.454067,28.478817,0</coordinates></Point></Placemark><Placemark><name>桃渚所</name><description>所 · 台州府 · confirmed · 《浙江通志》卷九十八〈海防四·台州府〉 · 本行巡司/烽堠仅为文献列于该防区，非正式隶属或实证传警线</description><ExtendedData><Data name="id"><value>ZJ-MAP-0069</value></Data><Data name="name"><value>桃渚所</value></Data><Data name="type"><value>所</value></Data><Data name="pref"><value>台州府</value></Data><Data name="guard"><value>海门卫</value></Data><Data name="subguard"><value>桃渚所</value></Data><Data name="status"><value>confirmed</value></Data><Data name="source"><value>《浙江通志》卷九十八〈海防四·台州府〉</value></Data></ExtendedData><Point><coordinates>121.539312,28.825888,0</coordinates></Point></Placemark><Placemark><name>澉浦所</name><description>所 · 嘉兴府 · confirmed · 《浙江通志》卷九十七〈海防三·嘉兴府〉 · 本行巡司/烽堠仅为文献列于该防区，非正式隶属或实证传警线</description><ExtendedData><Data name="id"><value>ZJ-MAP-0072</value></Data><Data name="name"><value>澉浦所</value></Data><Data name="type"><value>所</value></Data><Data name="pref"><value>嘉兴府</value></Data><Data name="guard"><value>海宁卫</value></Data><Data name="subguard"><value>澉浦所</value></Data><Data name="status"><value>confirmed</value></Data><Data name="source"><value>《浙江通志》卷九十七〈海防三·嘉兴府〉</value></Data></ExtendedData><Point><coordinates>120.889958,30.388643,0</coordinates></Point></Placemark><Placemark><name>大嵩所</name><description>所 · 宁波府 · confirmed · 《浙江通志》卷九十七〈海防三·宁波府〉 · 本行巡司/烽堠仅为文献列于该防区，非正式隶属或实证传警线</description><ExtendedData><Data name="id"><value>ZJ-MAP-0073</value></Data><Data name="name"><value>大嵩所</value></Data><Data name="type"><value>所</value></Data><Data name="pref"><value>宁波府</value></Data><Data name="guard"><value>定海卫</value></Data><Data name="subguard"><value>大嵩所</value></Data><Data name="status"><value>confirmed</value></Data><Data name="source"><value>《浙江通志》卷九十七〈海防三·宁波府〉</value></Data></ExtendedData><Point><coordinates>121.787355,29.707755,0</coordinates></Point></Placemark><Placemark><name>龙山所</name><description>所 · 宁波府 · confirmed · 《浙江通志》卷九十八〈海防四·绍兴府临观段〉 · 本行巡司/烽堠仅为文献列于该防区，非正式隶属或实证传警线；民政属宁波慈溪县，临观防区见绍兴篇</description><ExtendedData><Data name="id"><value>ZJ-MAP-0082</value></Data><Data name="name"><value>龙山所</value></Data><Data name="type"><value>所</value></Data><Data name="pref"><value>宁波府</value></Data><Data name="guard"><value>观海卫</value></Data><Data name="subguard"><value>龙山所</value></Data><Data name="status"><value>confirmed</value></Data><Data name="source"><value>《浙江通志》卷九十八〈海防四·绍兴府临观段〉</value></Data></ExtendedData><Point><coordinates>121.562285,30.077398,0</coordinates></Point></Placemark><Placemark><name>海安所</name><description>所 · 温州府 · confirmed · 《浙江通志》卷九十八〈海防四·温州府〉 · 本行巡司/烽堠仅为文献列于该防区，非正式隶属或实证传警线</description><ExtendedData><Data name="id"><value>ZJ-MAP-0085</value></Data><Data name="name"><value>海安所</value></Data><Data name="type"><value>所</value></Data><Data name="pref"><value>温州府</value></Data><Data name="guard"><value>温州卫</value></Data><Data name="subguard"><value>海安所</value></Data><Data name="status"><value>confirmed</value></Data><Data name="source"><value>《浙江通志》卷九十八〈海防四·温州府〉</value></Data></ExtendedData><Point><coordinates>120.735145,27.828262,0</coordinates></Point></Placemark><Placemark><name>宁村所</name><description>所 · 温州府 · confirmed · 《浙江通志》卷九十八〈海防四·温州府〉 · 本行巡司/烽堠仅为文献列于该防区，非正式隶属或实证传警线</description><ExtendedData><Data name="id"><value>ZJ-MAP-0087</value></Data><Data name="name"><value>宁村所</value></Data><Data name="type"><value>所</value></Data><Data name="pref"><value>温州府</value></Data><Data name="guard"><value>磐石卫</value></Data><Data name="subguard"><value>宁村所</value></Data><Data name="status"><value>confirmed</value></Data><Data name="source"><value>《浙江通志》卷九十八〈海防四·温州府〉</value></Data></ExtendedData><Point><coordinates>120.843947,27.923734,0</coordinates></Point></Placemark><Placemark><name>磐石后所</name><description>所 · 温州府 · confirmed · 《浙江通志》卷九十八〈海防四·温州府〉 · 本行巡司/烽堠仅为文献列于该防区，非正式隶属或实证传警线</description><ExtendedData><Data name="id"><value>ZJ-MAP-0088</value></Data><Data name="name"><value>磐石后所</value></Data><Data name="type"><value>所</value></Data><Data name="pref"><value>温州府</value></Data><Data name="guard"><value>磐石卫</value></Data><Data name="subguard"><value>磐石后所</value></Data><Data name="status"><value>confirmed</value></Data><Data name="source"><value>《浙江通志》卷九十八〈海防四·温州府〉</value></Data></ExtendedData><Point><coordinates>120.979754,28.121571,0</coordinates></Point></Placemark><Placemark><name>蒲岐所</name><description>所 · 温州府 · confirmed · 《浙江通志》卷九十八〈海防四·温州府〉 · 本行巡司/烽堠仅为文献列于该防区，非正式隶属或实证传警线</description><ExtendedData><Data name="id"><value>ZJ-MAP-0089</value></Data><Data name="name"><value>蒲岐所</value></Data><Data name="type"><value>所</value></Data><Data name="pref"><value>温州府</value></Data><Data name="guard"><value>磐石卫</value></Data><Data name="subguard"><value>蒲岐所</value></Data><Data name="status"><value>confirmed</value></Data><Data name="source"><value>《浙江通志》卷九十八〈海防四·温州府〉</value></Data></ExtendedData><Point><coordinates>121.052028,28.169386,0</coordinates></Point></Placemark><Placemark><name>壮士所</name><description>所 · 温州府 · confirmed · 《浙江通志》卷九十八〈海防四·温州府〉 · 本行巡司/烽堠仅为文献列于该防区，非正式隶属或实证传警线</description><ExtendedData><Data name="id"><value>ZJ-MAP-0090</value></Data><Data name="name"><value>壮士所</value></Data><Data name="type"><value>所</value></Data><Data name="pref"><value>温州府</value></Data><Data name="guard"><value>金乡卫</value></Data><Data name="subguard"><value>壮士所</value></Data><Data name="status"><value>confirmed</value></Data><Data name="source"><value>《浙江通志》卷九十八〈海防四·温州府〉</value></Data></ExtendedData><Point><coordinates>120.51994,27.271394,0</coordinates></Point></Placemark><Placemark><name>沙园所</name><description>所 · 温州府 · confirmed · 《浙江通志》卷九十八〈海防四·温州府〉 · 本行巡司/烽堠仅为文献列于该防区，非正式隶属或实证传警线</description><ExtendedData><Data name="id"><value>ZJ-MAP-0091</value></Data><Data name="name"><value>沙园所</value></Data><Data name="type"><value>所</value></Data><Data name="pref"><value>温州府</value></Data><Data name="guard"><value>金乡卫</value></Data><Data name="subguard"><value>沙园所</value></Data><Data name="status"><value>confirmed</value></Data><Data name="source"><value>《浙江通志》卷九十八〈海防四·温州府〉</value></Data></ExtendedData><Point><coordinates>120.646391,27.727257,0</coordinates></Point></Placemark><Placemark><name>蒲门所</name><description>所 · 温州府 · confirmed · 《浙江通志》卷九十八〈海防四·温州府〉 · 本行巡司/烽堠仅为文献列于该防区，非正式隶属或实证传警线</description><ExtendedData><Data name="id"><value>ZJ-MAP-0092</value></Data><Data name="name"><value>蒲门所</value></Data><Data name="type"><value>所</value></Data><Data name="pref"><value>温州府</value></Data><Data name="guard"><value>金乡卫</value></Data><Data name="subguard"><value>蒲门所</value></Data><Data name="status"><value>confirmed</value></Data><Data name="source"><value>《浙江通志》卷九十八〈海防四·温州府〉</value></Data></ExtendedData><Point><coordinates>120.446835,27.235401,0</coordinates></Point></Placemark><Placemark><name>三山所</name><description>所 · 绍兴府 · confirmed · 《浙江通志》卷九十八〈海防四·绍兴府〉 · 本行巡司/烽堠仅为文献列于该防区，非正式隶属或实证传警线</description><ExtendedData><Data name="id"><value>ZJ-MAP-0093</value></Data><Data name="name"><value>三山所</value></Data><Data name="type"><value>所</value></Data><Data name="pref"><value>绍兴府</value></Data><Data name="guard"><value>临山卫</value></Data><Data name="subguard"><value>三山所</value></Data><Data name="status"><value>confirmed</value></Data><Data name="source"><value>《浙江通志》卷九十八〈海防四·绍兴府〉</value></Data></ExtendedData><Point><coordinates>121.24313,30.173642,0</coordinates></Point></Placemark><Placemark><name>沥海所</name><description>所 · 绍兴府 · confirmed · 《浙江通志》卷九十八〈海防四·绍兴府〉 · 本行巡司/烽堠仅为文献列于该防区，非正式隶属或实证传警线</description><ExtendedData><Data name="id"><value>ZJ-MAP-0094</value></Data><Data name="name"><value>沥海所</value></Data><Data name="type"><value>所</value></Data><Data name="pref"><value>绍兴府</value></Data><Data name="guard"><value>临山卫</value></Data><Data name="subguard"><value>沥海所</value></Data><Data name="status"><value>confirmed</value></Data><Data name="source"><value>《浙江通志》卷九十八〈海防四·绍兴府〉</value></Data></ExtendedData><Point><coordinates>120.76271,30.116126,0</coordinates></Point></Placemark><Placemark><name>三江所</name><description>所 · 绍兴府 · confirmed · 《浙江通志》卷九十八〈海防四·绍兴府〉 · 本行巡司/烽堠仅为文献列于该防区，非正式隶属或实证传警线</description><ExtendedData><Data name="id"><value>ZJ-MAP-0095</value></Data><Data name="name"><value>三江所</value></Data><Data name="type"><value>所</value></Data><Data name="pref"><value>绍兴府</value></Data><Data name="guard"><value>绍兴卫</value></Data><Data name="subguard"><value>三江所</value></Data><Data name="status"><value>confirmed</value></Data><Data name="source"><value>《浙江通志》卷九十八〈海防四·绍兴府〉</value></Data></ExtendedData><Point><coordinates>120.616296,30.113341,0</coordinates></Point></Placemark><Placemark><name>楚门</name><description>烽堠 · 台州府 · candidate · 《浙江通志》卷九十八〈海防四·台州府〉 · 本行巡司/烽堠仅为文献列于该防区，非正式隶属或实证传警线</description><ExtendedData><Data name="id"><value>ZJ-MAP-0107</value></Data><Data name="name"><value>楚门</value></Data><Data name="type"><value>烽堠</value></Data><Data name="pref"><value>台州府</value></Data><Data name="guard"><value>松门卫</value></Data><Data name="subguard"><value>楚门所</value></Data><Data name="status"><value>candidate</value></Data><Data name="source"><value>《浙江通志》卷九十八〈海防四·台州府〉</value></Data></ExtendedData><Point><coordinates>121.28896,28.228632,0</coordinates></Point></Placemark><Placemark><name>盘马</name><description>烽堠 · 台州府 · confirmed · 《浙江通志》卷九十八〈海防四·台州府〉；《明史》卷九十〈浙江都司〉 · 本行巡司/烽堠仅为文献列于该防区，非正式隶属或实证传警线</description><ExtendedData><Data name="id"><value>ZJ-MAP-0116</value></Data><Data name="name"><value>盘马</value></Data><Data name="type"><value>烽堠</value></Data><Data name="pref"><value>台州府</value></Data><Data name="guard"><value>松门卫</value></Data><Data name="subguard"><value></value></Data><Data name="status"><value>confirmed</value></Data><Data name="source"><value>《浙江通志》卷九十八〈海防四·台州府〉；《明史》卷九十〈浙江都司〉</value></Data></ExtendedData><Point><coordinates>121.550366,28.415716,0</coordinates></Point></Placemark><Placemark><name>苔山</name><description>烽堠 · 台州府 · candidate · 《浙江通志》卷九十八〈海防四·台州府〉 · 本行巡司/烽堠仅为文献列于该防区，非正式隶属或实证传警线</description><ExtendedData><Data name="id"><value>ZJ-MAP-0120</value></Data><Data name="name"><value>苔山</value></Data><Data name="type"><value>烽堠</value></Data><Data name="pref"><value>台州府</value></Data><Data name="guard"><value>松门卫</value></Data><Data name="subguard"><value>楚门所</value></Data><Data name="status"><value>candidate</value></Data><Data name="source"><value>《浙江通志》卷九十八〈海防四·台州府〉</value></Data></ExtendedData><Point><coordinates>121.245432,28.262584,0</coordinates></Point></Placemark><Placemark><name>下旧城</name><description>烽堠 · 台州府 · candidate · 《浙江通志》卷九十八〈海防四·台州府〉 · 本行巡司/烽堠仅为文献列于该防区，非正式隶属或实证传警线</description><ExtendedData><Data name="id"><value>ZJ-MAP-0130</value></Data><Data name="name"><value>下旧城</value></Data><Data name="type"><value>烽堠</value></Data><Data name="pref"><value>台州府</value></Data><Data name="guard"><value>海门卫</value></Data><Data name="subguard"><value>桃渚所</value></Data><Data name="status"><value>candidate</value></Data><Data name="source"><value>《浙江通志》卷九十八〈海防四·台州府〉</value></Data></ExtendedData><Point><coordinates>121.634235,28.782501,0</coordinates></Point></Placemark><Placemark><name>小渔西</name><description>烽堠 · 台州府 · confirmed · 《浙江通志》卷九十八〈海防四·台州府〉 · 本行巡司/烽堠仅为文献列于该防区，非正式隶属或实证传警线</description><ExtendedData><Data name="id"><value>ZJ-MAP-0139</value></Data><Data name="name"><value>小渔西</value></Data><Data name="type"><value>烽堠</value></Data><Data name="pref"><value>台州府</value></Data><Data name="guard"><value>海门卫</value></Data><Data name="subguard"><value>健跳所</value></Data><Data name="status"><value>confirmed</value></Data><Data name="source"><value>《浙江通志》卷九十八〈海防四·台州府〉</value></Data></ExtendedData><Point><coordinates>121.679703,28.958678,0</coordinates></Point></Placemark><Placemark><name>慈岙</name><description>烽堠 · 宁波府 · confirmed · 《浙江通志》卷九十七〈海防三·宁波府〉 · 本行巡司/烽堠仅为文献列于该防区，非正式隶属或实证传警线</description><ExtendedData><Data name="id"><value>ZJ-MAP-0179</value></Data><Data name="name"><value>慈岙</value></Data><Data name="type"><value>烽堠</value></Data><Data name="pref"><value>宁波府</value></Data><Data name="guard"><value>定海卫</value></Data><Data name="subguard"><value>大嵩所</value></Data><Data name="status"><value>confirmed</value></Data><Data name="source"><value>《浙江通志》卷九十七〈海防三·宁波府〉</value></Data></ExtendedData><Point><coordinates>121.845639,29.783533,0</coordinates></Point></Placemark><Placemark><name>梅山</name><description>烽堠 · 宁波府 · confirmed · 《浙江通志》卷九十七〈海防三·宁波府〉 · 本行巡司/烽堠仅为文献列于该防区，非正式隶属或实证传警线</description><ExtendedData><Data name="id"><value>ZJ-MAP-0185</value></Data><Data name="name"><value>梅山</value></Data><Data name="type"><value>烽堠</value></Data><Data name="pref"><value>宁波府</value></Data><Data name="guard"><value>定海卫</value></Data><Data name="subguard"><value>霩衢所</value></Data><Data name="status"><value>confirmed</value></Data><Data name="source"><value>《浙江通志》卷九十七〈海防三·宁波府〉</value></Data></ExtendedData><Point><coordinates>122.02195,29.811006,0</coordinates></Point></Placemark><Placemark><name>横山</name><description>烽堠 · 宁波府 · confirmed · 《浙江通志》卷九十七〈海防三·宁波府〉 · 本行巡司/烽堠仅为文献列于该防区，非正式隶属或实证传警线</description><ExtendedData><Data name="id"><value>ZJ-MAP-0186</value></Data><Data name="name"><value>横山</value></Data><Data name="type"><value>烽堠</value></Data><Data name="pref"><value>宁波府</value></Data><Data name="guard"><value>定海卫</value></Data><Data name="subguard"><value>大嵩所</value></Data><Data name="status"><value>confirmed</value></Data><Data name="source"><value>《浙江通志》卷九十七〈海防三·宁波府〉</value></Data></ExtendedData><Point><coordinates>121.797685,29.6676,0</coordinates></Point></Placemark><Placemark><name>虾𢈠</name><description>烽堠 · 宁波府 · candidate · 《浙江通志》卷九十七〈海防三·宁波府〉 · 本行巡司/烽堠仅为文献列于该防区，非正式隶属或实证传警线</description><ExtendedData><Data name="id"><value>ZJ-MAP-0201</value></Data><Data name="name"><value>虾𢈠</value></Data><Data name="type"><value>烽堠</value></Data><Data name="pref"><value>宁波府</value></Data><Data name="guard"><value>定海卫</value></Data><Data name="subguard"><value>霩衢所</value></Data><Data name="status"><value>candidate</value></Data><Data name="source"><value>《浙江通志》卷九十七〈海防三·宁波府〉</value></Data></ExtendedData><Point><coordinates>121.952362,29.799694,0</coordinates></Point></Placemark><Placemark><name>东门岭</name><description>烽堠 · 宁波府 · confirmed · 《浙江通志》卷九十七〈海防三·宁波府〉 · 本行巡司/烽堠仅为文献列于该防区，非正式隶属或实证传警线</description><ExtendedData><Data name="id"><value>ZJ-MAP-0222</value></Data><Data name="name"><value>东门岭</value></Data><Data name="type"><value>烽堠</value></Data><Data name="pref"><value>宁波府</value></Data><Data name="guard"><value>昌国卫</value></Data><Data name="subguard"><value>钱仓所</value></Data><Data name="status"><value>confirmed</value></Data><Data name="source"><value>《浙江通志》卷九十七〈海防三·宁波府〉</value></Data></ExtendedData><Point><coordinates>121.973293,29.6028,0</coordinates></Point></Placemark><Placemark><name>公屿</name><description>烽堠 · 宁波府 · confirmed · 《浙江通志》卷九十七〈海防三·宁波府〉 · 本行巡司/烽堠仅为文献列于该防区，非正式隶属或实证传警线</description><ExtendedData><Data name="id"><value>ZJ-MAP-0227</value></Data><Data name="name"><value>公屿</value></Data><Data name="type"><value>烽堠</value></Data><Data name="pref"><value>宁波府</value></Data><Data name="guard"><value>昌国卫</value></Data><Data name="subguard"><value>爵溪所</value></Data><Data name="status"><value>confirmed</value></Data><Data name="source"><value>《浙江通志》卷九十七〈海防三·宁波府〉</value></Data></ExtendedData><Point><coordinates>121.945299,29.506494,0</coordinates></Point></Placemark><Placemark><name>杉木</name><description>烽堠 · 宁波府 · confirmed · 《浙江通志》卷九十七〈海防三·宁波府〉 · 本行巡司/烽堠仅为文献列于该防区，非正式隶属或实证传警线</description><ExtendedData><Data name="id"><value>ZJ-MAP-0240</value></Data><Data name="name"><value>杉木</value></Data><Data name="type"><value>烽堠</value></Data><Data name="pref"><value>宁波府</value></Data><Data name="guard"><value>昌国卫</value></Data><Data name="subguard"><value>钱仓所</value></Data><Data name="status"><value>confirmed</value></Data><Data name="source"><value>《浙江通志》卷九十七〈海防三·宁波府〉</value></Data></ExtendedData><Point><coordinates>121.917946,29.541473,0</coordinates></Point></Placemark><Placemark><name>赤坎</name><description>烽堠 · 宁波府 · confirmed · 《浙江通志》卷九十七〈海防三·宁波府〉；《明史》卷九十〈浙江都司〉 · 本行巡司/烽堠仅为文献列于该防区，非正式隶属或实证传警线</description><ExtendedData><Data name="id"><value>ZJ-MAP-0246</value></Data><Data name="name"><value>赤坎</value></Data><Data name="type"><value>烽堠</value></Data><Data name="pref"><value>宁波府</value></Data><Data name="guard"><value>昌国卫</value></Data><Data name="subguard"><value></value></Data><Data name="status"><value>confirmed</value></Data><Data name="source"><value>《浙江通志》卷九十七〈海防三·宁波府〉；《明史》卷九十〈浙江都司〉</value></Data></ExtendedData><Point><coordinates>121.957305,29.437114,0</coordinates></Point></Placemark><Placemark><name>黄沙</name><description>烽堠 · 宁波府 · candidate · 《浙江通志》卷九十七〈海防三·宁波府〉；《明史》卷九十〈浙江都司〉 · 本行巡司/烽堠仅为文献列于该防区，非正式隶属或实证传警线</description><ExtendedData><Data name="id"><value>ZJ-MAP-0249</value></Data><Data name="name"><value>黄沙</value></Data><Data name="type"><value>烽堠</value></Data><Data name="pref"><value>宁波府</value></Data><Data name="guard"><value>昌国卫</value></Data><Data name="subguard"><value></value></Data><Data name="status"><value>candidate</value></Data><Data name="source"><value>《浙江通志》卷九十七〈海防三·宁波府〉；《明史》卷九十〈浙江都司〉</value></Data></ExtendedData><Point><coordinates>121.940351,29.621407,0</coordinates></Point></Placemark><Placemark><name>施公山</name><description>烽堠 · 宁波府 · confirmed · 《浙江通志》卷九十八〈海防四·绍兴府临观段〉 · 本行巡司/烽堠仅为文献列于该防区，非正式隶属或实证传警线；民政属宁波慈溪县，临观防区见绍兴篇</description><ExtendedData><Data name="id"><value>ZJ-MAP-0253</value></Data><Data name="name"><value>施公山</value></Data><Data name="type"><value>烽堠</value></Data><Data name="pref"><value>宁波府</value></Data><Data name="guard"><value>观海卫</value></Data><Data name="subguard"><value>龙山所</value></Data><Data name="status"><value>confirmed</value></Data><Data name="source"><value>《浙江通志》卷九十八〈海防四·绍兴府临观段〉</value></Data></ExtendedData><Point><coordinates>121.50544,30.093419,0</coordinates></Point></Placemark><Placemark><name>石塘</name><description>烽堠 · 宁波府 · confirmed · 《浙江通志》卷九十八〈海防四·绍兴府临观段〉 · 本行巡司/烽堠仅为文献列于该防区，非正式隶属或实证传警线；民政属宁波慈溪县，临观防区见绍兴篇</description><ExtendedData><Data name="id"><value>ZJ-MAP-0255</value></Data><Data name="name"><value>石塘</value></Data><Data name="type"><value>烽堠</value></Data><Data name="pref"><value>宁波府</value></Data><Data name="guard"><value>观海卫</value></Data><Data name="subguard"><value>龙山所</value></Data><Data name="status"><value>confirmed</value></Data><Data name="source"><value>《浙江通志》卷九十八〈海防四·绍兴府临观段〉</value></Data></ExtendedData><Point><coordinates>121.571987,30.064189,0</coordinates></Point></Placemark><Placemark><name>赭山</name><description>烽堠 · 杭州府 · candidate · 《浙江通志》卷九十七〈海防三·杭州府〉；《明史》卷九十〈海宁千户所〉 · 直属都司守御千户所；原志分入杭州海防篇；本行巡司/烽堠仅为文献列于该防区，非正式隶属或实证传警线；此处杭州海宁所非嘉兴海盐县海宁卫</description><ExtendedData><Data name="id"><value>ZJ-MAP-0265</value></Data><Data name="name"><value>赭山</value></Data><Data name="type"><value>烽堠</value></Data><Data name="pref"><value>杭州府</value></Data><Data name="guard"><value>浙江都司</value></Data><Data name="subguard"><value>海宁所</value></Data><Data name="status"><value>candidate</value></Data><Data name="source"><value>《浙江通志》卷九十七〈海防三·杭州府〉；《明史》卷九十〈海宁千户所〉</value></Data></ExtendedData><Point><coordinates>120.417455,30.279989,0</coordinates></Point></Placemark><Placemark><name>南堡</name><description>烽堠 · 温州府 · confirmed · 《浙江通志》卷九十八〈海防四·温州府〉 · 本行巡司/烽堠仅为文献列于该防区，非正式隶属或实证传警线</description><ExtendedData><Data name="id"><value>ZJ-MAP-0306</value></Data><Data name="name"><value>南堡</value></Data><Data name="type"><value>烽堠</value></Data><Data name="pref"><value>温州府</value></Data><Data name="guard"><value>金乡卫</value></Data><Data name="subguard"><value>蒲门所</value></Data><Data name="status"><value>confirmed</value></Data><Data name="source"><value>《浙江通志》卷九十八〈海防四·温州府〉</value></Data></ExtendedData><Point><coordinates>120.453181,27.230385,0</coordinates></Point></Placemark><Placemark><name>尖山</name><description>烽堠 · 温州府 · candidate · 《浙江通志》卷九十八〈海防四·温州府〉；《明史》卷九十〈浙江都司〉 · 本行巡司/烽堠仅为文献列于该防区，非正式隶属或实证传警线</description><ExtendedData><Data name="id"><value>ZJ-MAP-0310</value></Data><Data name="name"><value>尖山</value></Data><Data name="type"><value>烽堠</value></Data><Data name="pref"><value>温州府</value></Data><Data name="guard"><value>金乡卫</value></Data><Data name="subguard"><value></value></Data><Data name="status"><value>candidate</value></Data><Data name="source"><value>《浙江通志》卷九十八〈海防四·温州府〉；《明史》卷九十〈浙江都司〉</value></Data></ExtendedData><Point><coordinates>120.53418,27.224475,0</coordinates></Point></Placemark><Placemark><name>蔡山</name><description>烽堠 · 绍兴府 · confirmed · 《浙江通志》卷九十八〈海防四·绍兴府〉 · 本行巡司/烽堠仅为文献列于该防区，非正式隶属或实证传警线</description><ExtendedData><Data name="id"><value>ZJ-MAP-0339</value></Data><Data name="name"><value>蔡山</value></Data><Data name="type"><value>烽堠</value></Data><Data name="pref"><value>绍兴府</value></Data><Data name="guard"><value>临山卫</value></Data><Data name="subguard"><value>三山所</value></Data><Data name="status"><value>confirmed</value></Data><Data name="source"><value>《浙江通志》卷九十八〈海防四·绍兴府〉</value></Data></ExtendedData><Point><coordinates>121.329349,30.16006,0</coordinates></Point></Placemark></Document></kml>